locationid,Applicant,FacilityType,cnn,LocationDescription,Address,blocklot,block,lot,permit,Status,FoodItems,X,Y,Latitude,Longitude,Schedule,dayshours,NOISent,Approved,Received,PriorPermit,ExpirationDate,Location,Fire Prevention Districts,Police Districts,Supervisor Districts,Zip Codes,Neighborhoods (old)
1738240,Zuri Food Facilities,Truck,141000,02ND ST: STILLMAN ST to BRYANT ST (454 - 499),490 02ND ST,3763007,3763,7,23MFF-00035,APPROVED,Peruvian Food Served Hot,6014337.512,2113125.58,37.783046099750000,-122.39406659923000,http://bsm.sfdpw.org/PermitsTracker/reports/report.aspx?title=schedule&report=rptSchedule&params=permit=23MFF-00035&ExportPDF=1&Filename=23MFF-00035_schedule.pdf,,,11/15/2023 12:00:00 AM,20231103,0,11/15/2024 12:00:00 AM,"(37.783046099749996, -122.39406659922962)",6,2,9,28856,6
1735062,"Bay Area Mobile Catering, Inc. dba. Taqueria Angelica's",Truck,1428000,25TH ST: ALABAMA ST to HARRISON ST (3042 - 3099),3065 25TH ST,4271038,4271,38,23MFF-00032,APPROVED,Tacos: burritos: soda & juice,6009084.78,2101536.437,37.7509316476402,-122.4114199662060,http://bsm.sfdpw.org/PermitsTracker/reports/report.aspx?title=schedule&report=rptSchedule&params=permit=23MFF-00032&ExportPDF=1&Filename=23MFF-00032_schedule.pdf,,,10/26/2023 12:00:00 AM,20231019,1,11/15/2024 12:00:00 AM,"(37.7509316476402, -122.4114199662057)",2,4,7,28859,19
1343454,Esmeli Catering,Truck,7022000,HOOPER ST: 07TH ST to 08TH ST (100 - 199),Assessors Block /Lot,,,,19MFF-00110,REQUESTED,tacos: burritos: quesadilla: tortas sodas,,,0,0,http://bsm.sfdpw.org/PermitsTracker/reports/report.aspx?title=schedule&report=rptSchedule&params=permit=19MFF-00110&ExportPDF=1&Filename=19MFF-00110_schedule.pdf,,,,20190731,0,,"(0.0, 0.0)",,,,,
963998,Singh Brothers Ice Cream,Truck,10327000,PENINSULA AVE: BLANKEN AVE to LATHROP AVE (300 - 399),360 PENINSULA AVE,5083009,5083,9,17MFF-0182,REQUESTED,Ice Cream: Pre-Packaged Chips: Candies: Bottled Water & Canned SODA,6012192.793,2086872.475,37.7108412835853,-122.39964261496300,http://bsm.sfdpw.org/PermitsTracker/reports/report.aspx?title=schedule&report=rptSchedule&params=permit=17MFF-0182&ExportPDF=1&Filename=17MFF-0182_schedule.pdf,Mo-Fr:5PM-6PM,,,20170418,1,03/15/2018 12:00:00 AM,"(37.7108412835853, -122.39964261496316)",10,3,8,309,1
1750909,"The New York Frankfurter Co. of CA, Inc. DBA: Annie's Hot Dogs",Push Cart,24892000,STOCKTON ST: 04TH ST \ ELLIS ST \ MARKET ST intersection,800 MARKET ST,329001,329,1,23MFF-00055,APPROVED,Soft pretzels: hot dogs: sausages: chips: popcorn: sodea: coffee: espresso: cappucino: pastries: ice cream: Italian sausages: shish-ka-bob: churros: juice: water: various drinks.,6010729.654,2114081.536,37.785469746489900,-122.40661576107300,http://bsm.sfdpw.org/PermitsTracker/reports/report.aspx?title=schedule&report=rptSchedule&params=permit=23MFF-00055&ExportPDF=1&Filename=23MFF-00055_schedule.pdf,,,01/26/2024 12:00:00 AM,20231229,1,11/15/2024 12:00:00 AM,"(37.785469746489916, -122.40661576107294)",14,10,10,28852,6
1591826,Cochinita,Truck,3079000,BRANNAN ST: ZOE ST to 04TH ST (440 - 499),490 BRANNAN ST,3776025,3776,25,22MFF-00021,EXPIRED,Mexican Food: Yucatan Food: Street Food,6013619.641,2111616.7,37.778863135500200,-122.39644435935800,http://bsm.sfdpw.org/PermitsTracker/reports/report.aspx?title=schedule&report=rptSchedule&params=permit=22MFF-00021&ExportPDF=1&Filename=22MFF-00021_schedule.pdf,,,03/22/2022 12:00:00 AM,20220126,1,11/15/2022 12:00:00 AM,"(37.778863135500174, -122.39644435935813)",6,2,9,28856,34
1735063,"Bay Area Mobile Catering, Inc. dba. Taqueria Angelica's",Truck,5683000,FOLSOM ST: 11TH ST to NORFOLK ST (1500 - 1548),1501 FOLSOM ST,3521058,3521,58,23MFF-00032,APPROVED,Tacos: burritos: soda & juice,6008490.781,2109071.076,37.771586702670300,-122.41400704302400,http://bsm.sfdpw.org/PermitsTracker/reports/report.aspx?title=schedule&report=rptSchedule&params=permit=23MFF-00032&ExportPDF=1&Filename=23MFF-00032_schedule.pdf,,,10/26/2023 12:00:00 AM,20231019,1,11/15/2024 12:00:00 AM,"(37.771586702670334, -122.41400704302406)",8,2,9,28853,19
1733786,MOMO INNOVATION LLC,Truck,3420000,BUSH ST: BATTERY ST to SANSOME ST (100 - 199),1 BUSH ST,290011,290,11,23MFF-00028,APPROVED,Noodles,6012652.373,2116027.943,37.79092150726920,-122.4001004237390,http://bsm.sfdpw.org/PermitsTracker/reports/report.aspx?title=schedule&report=rptSchedule&params=permit=23MFF-00028&ExportPDF=1&Filename=23MFF-00028_schedule.pdf,,,10/18/2023 12:00:00 AM,20231017,0,11/15/2024 12:00:00 AM,"(37.79092150726921, -122.4001004237385)",4,1,10,28854,6
1733612,Buenafe,Truck,9199000,MISSISSIPPI ST: 07TH ST \ 16TH ST to 17TH ST (1 - 99),901 16TH ST,3949001,3949,1,23MFF-00026,APPROVED,Tacos burritos quesadillas tortas pupusas flautas tamales,6013806.356,2106973.63,37.76612469442700,-122.39547306227000,http://bsm.sfdpw.org/PermitsTracker/reports/report.aspx?title=schedule&report=rptSchedule&params=permit=23MFF-00026&ExportPDF=1&Filename=23MFF-00026_schedule.pdf,,,10/18/2023 12:00:00 AM,20231013,0,11/15/2024 12:00:00 AM,"(37.76612469442701, -122.39547306227007)",14,3,8,28856,20
1332947,Mini Mobile Food Catering,Truck,7740000,KANSAS ST: CESAR CHAVEZ ST to MARIN ST (1600 - 1699),Assessors Block 4341/Lot001,4341001,4341,1,19MFF-00041,EXPIRED,Cold Truck: Corn Dogs: Noodle Soups: Candy: Pre-packaged Snacks: Sandwiches: Chips: Coffee: Tea: Various Beverages,6011939.508,2100756.7,37.748950363427100,-122.40149318970800,http://bsm.sfdpw.org/PermitsTracker/reports/report.aspx?title=schedule&report=rptSchedule&params=permit=19MFF-00041&ExportPDF=1&Filename=19MFF-00041_schedule.pdf,,,06/26/2019 12:00:00 AM,20190626,1,01/15/2021 12:00:00 AM,"(37.748950363427056, -122.40149318970822)",10,3,8,58,1
1738640,Eva's Catering,Truck,10006000,ORTEGA ST: 18TH AVE to 19TH AVE (1100 - 1199),1100 ORTEGA ST,2055019,2055,19,23MFF-00042,APPROVED,Cold Truck: Burrito: Corn Dog: Salads: Sandwiches: Quesadilla: Tacos: Fried Rice: Cow Mein: Chinese Rice: Noodle Plates: Soup: Bacon: Eggs: Ham: Avacado: Sausages: Beverages,5990583.21,2102550.36,37.752660520412300,-122.47547353178100,http://bsm.sfdpw.org/PermitsTracker/reports/report.aspx?title=schedule&report=rptSchedule&params=permit=23MFF-00042&ExportPDF=1&Filename=23MFF-00042_schedule.pdf,,,11/13/2023 12:00:00 AM,20231108,1,11/15/2024 12:00:00 AM,"(37.752660520412284, -122.47547353178139)",1,8,4,56,12
1723823,Natan's Catering,Truck,7166000,ILLINOIS ST: MARIPOSA ST \ TERRY A FRANCOIS BLVD to 18TH ST (600 - 699),Assessors Block 3941/Lot001,3941001,3941,1,23MFF-00006,APPROVED,Burgers: melts: hot dogs: burritos:sandwiches: fries: onion rings: drinks,6016208.818,2106421.254,37.764741322675000,-122.38712481217900,http://bsm.sfdpw.org/PermitsTracker/reports/report.aspx?title=schedule&report=rptSchedule&params=permit=23MFF-00006&ExportPDF=1&Filename=23MFF-00006_schedule.pdf,,,09/12/2023 12:00:00 AM,20230911,1,11/15/2024 12:00:00 AM,"(37.764741322674965, -122.38712481217911)",14,3,8,310,29
1089698,El Tonayense #60,Truck,6752000,HARRISON ST: MISTRAL ST to 20TH ST (2345 - 2399),2355 FOLSOM ST,3593035,3593,35,18MFF-0004,REQUESTED,Tacos: Burritos: Tortas: Quesadillas: Drinks,,,0,0,http://bsm.sfdpw.org/PermitsTracker/reports/report.aspx?title=schedule&report=rptSchedule&params=permit=18MFF-0004&ExportPDF=1&Filename=18MFF-0004_schedule.pdf,Mo-Su:4PM-10PM,,,20180205,1,07/15/2019 12:00:00 AM,"(0.0, 0.0)",,,,,
1340417,Let's Be Frank,Push Cart,6816000,HAYES ST: GOUGH ST to OCTAVIA ST (400 - 499),425 HAYES ST,817025,817,25,19MFF-00104,EXPIRED,Hot dogs and chili,6005815.064,2110939.717,37.776566896519500,-122.42339537672700,http://bsm.sfdpw.org/PermitsTracker/reports/report.aspx?title=schedule&report=rptSchedule&params=permit=19MFF-00104&ExportPDF=1&Filename=19MFF-00104_schedule.pdf,,,07/26/2019 12:00:00 AM,20190725,0,01/15/2021 12:00:00 AM,"(37.776566896519526, -122.42339537672727)",7,9,11,28852,10
1723891,Brazuca Grill,Truck,2458000,ARMSTRONG AVE: HAWES ST to INGALLS ST (1300 - 1399),1315 ARMSTRONG AVE,4851017,4851,17,23MFF-00007,APPROVED,Cold Truck: Sandwiches: Noodles:  Pre-packaged Snacks: Candy: Desserts Various Beverages,6015787.012,2091256.533,37.723078757516,-122.38752570401700,http://bsm.sfdpw.org/PermitsTracker/reports/report.aspx?title=schedule&report=rptSchedule&params=permit=23MFF-00007&ExportPDF=1&Filename=23MFF-00007_schedule.pdf,,,03/01/2024 12:00:00 AM,20230911,1,11/15/2024 12:00:00 AM,"(37.723078757516, -122.38752570401662)",10,3,8,58,1
1657809,"San Francisco Carts & Concessions, Inc. DBA Stanley's Steamers Hot Dogs",Push Cart,6109000,GEARY ST: STOCKTON ST to POWELL ST (200 - 299),251 GEARY ST,314014,314,14,22MFF-00042,EXPIRED,Hot dogs: condiments: soft pretzels: soft drinks: coffee: cold beverages: pastries: bakery goods: cookies: ice cream: candy: soups: churros: chestnuts: nuts: fresh fruit: fruit juices: desserts: potato chips and popcorn.,6010516.291,2114707.404,37.78717629174160,-122.40739807595800,http://bsm.sfdpw.org/PermitsTracker/reports/report.aspx?title=schedule&report=rptSchedule&params=permit=22MFF-00042&ExportPDF=1&Filename=22MFF-00042_schedule.pdf,,,11/03/2022 12:00:00 AM,20221103,1,11/15/2023 12:00:00 AM,"(37.78717629174164, -122.40739807595821)",5,10,10,28852,6
1750847,TING TING MINI MOBILE DELI,Truck,13139000,VAN DYKE AVE: INGALLS ST to JENNINGS ST (1300 - 1399),1370 VAN DYKE AVE,4811013,4811,13,23MFF-00054,APPROVED,Cold Truck: Pre-packaged sandwiches: snacks: fruit: various beverages,6015684.099,2092668.764,37.72695076437820,-122.3879799562620,http://bsm.sfdpw.org/PermitsTracker/reports/report.aspx?title=schedule&report=rptSchedule&params=permit=23MFF-00054&ExportPDF=1&Filename=23MFF-00054_schedule.pdf,,,03/28/2024 12:00:00 AM,20231229,1,11/15/2024 12:00:00 AM,"(37.72695076437817, -122.3879799562619)",10,3,8,58,1
1723814,Natan's Catering,Truck,3376000,BURKE AVE: START: 1500-1599 BLOCK to 03RD ST (1500 - 1599),1580 BURKE AVE,5203066,5203,66,23MFF-00006,APPROVED,Burgers: melts: hot dogs: burritos:sandwiches: fries: onion rings: drinks,6016479.94361,2099135.86798,37.74475219161640,-122.38567924872100,http://bsm.sfdpw.org/PermitsTracker/reports/report.aspx?title=schedule&report=rptSchedule&params=permit=23MFF-00006&ExportPDF=1&Filename=23MFF-00006_schedule.pdf,,,09/12/2023 12:00:00 AM,20230911,1,11/15/2024 12:00:00 AM,"(37.74475219161639, -122.38567924872147)",10,3,8,58,1
1744376,HalalCartSF LLC,Push Cart,8741101,MARKET ST: FREMONT ST \ FRONT ST to 01ST ST \ BUSH ST (401 - 499) -- SOUTH --,455 MARKET ST,3709012,3709,12,23MFF-00051,REQUESTED,Gyros: Kebabs: soft drinks: and water,6013076.33,2116028.637,37.79094704192340,-122.39863358940400,http://bsm.sfdpw.org/PermitsTracker/reports/report.aspx?title=schedule&report=rptSchedule&params=permit=23MFF-00051&ExportPDF=1&Filename=23MFF-00051_schedule.pdf,,,,20231121,0,11/15/2024 12:00:00 AM,"(37.79094704192342, -122.39863358940373)",12,2,9,28855,6
963980,Singh Brothers Ice Cream,Truck,6548000,GRIFFITH ST: INGERSON AVE to JAMESTOWN AVE (2900 - 2999),2900 GRIFFITH ST,4973001,4973,1,17MFF-0182,REQUESTED,Ice Cream: Pre-Packaged Chips: Candies: Bottled Water & Canned SODA,6015142.712,2089052.53,37.71699129032400,-122.38959908417000,http://bsm.sfdpw.org/PermitsTracker/reports/report.aspx?title=schedule&report=rptSchedule&params=permit=17MFF-0182&ExportPDF=1&Filename=17MFF-0182_schedule.pdf,Mo-Fr:12PM-1PM,,,20170418,1,03/15/2018 12:00:00 AM,"(37.71699129032396, -122.38959908416973)",10,3,8,58,1
1723882,Brazuca Grill,Truck,1500000,26TH ST: MINNESOTA ST to INDIANA ST (1000 - 1099),1051 26TH ST,4317015,4317,15,23MFF-00007,APPROVED,Cold Truck: Sandwiches: Noodles:  Pre-packaged Snacks: Candy: Desserts Various Beverages,6015309.355,2101533.012,37.75126940587810,-122.38989436694400,http://bsm.sfdpw.org/PermitsTracker/reports/report.aspx?title=schedule&report=rptSchedule&params=permit=23MFF-00007&ExportPDF=1&Filename=23MFF-00007_schedule.pdf,,,03/01/2024 12:00:00 AM,20230911,1,11/15/2024 12:00:00 AM,"(37.75126940587811, -122.38989436694435)",10,3,8,28856,1
1527317,"BOWL'D ACAI, LLC.",Truck,9698000,NORTH POINT ST: LAGUNA ST to BUCHANAN ST (1500 - 1599),15 MARINA BLVD,446002,446,2,21MFF-00009,REQUESTED,Acai Bowls: Poke Bowls: Smoothies: Juices,6003247.31181,2121194.21345,37.80457786909010,-122.43301077434300,http://bsm.sfdpw.org/PermitsTracker/reports/report.aspx?title=schedule&report=rptSchedule&params=permit=21MFF-00009&ExportPDF=1&Filename=21MFF-00009_schedule.pdf,,,,20210311,0,11/15/2021 12:00:00 AM,"(37.80457786909011, -122.43301077434302)",13,9,1,57,17
773095,Athena SF Gyro,Push Cart,30747000,MARKET ST: 11TH ST intersection,10 SOUTH VAN NESS AVE,3506004,3506,4,15MFF-0145,REQUESTED,Gyro pita bread (Lamb or chicken): lamb over rice: chicken over rice: chicken biryani rice: soft drinks,6006927.466,2110076.439,37.77425926306000,-122.41948598839800,http://bsm.sfdpw.org/PermitsTracker/reports/report.aspx?title=schedule&report=rptSchedule&params=permit=15MFF-0145&ExportPDF=1&Filename=15MFF-0145_schedule.pdf,We/Th/Fr:6AM-6PM,,,20150901,0,,"(37.77425926306004, -122.41948598839828)",8,2,9,28853,19
1332944,Mini Mobile Food Catering,Truck,6710000,HARRISON ST: BEALE ST to FREMONT ST \ I-80 W OFF RAMP (300 - 399),355 FREMONT ST,3747 320,3747,320,19MFF-00041,EXPIRED,Cold Truck: Corn Dogs: Noodle Soups: Candy: Pre-packaged Snacks: Sandwiches: Chips: Coffee: Tea: Various Beverages,6014901.46219,2114671.59044,37.78732241931990,-122.39222370638300,http://bsm.sfdpw.org/PermitsTracker/reports/report.aspx?title=schedule&report=rptSchedule&params=permit=19MFF-00041&ExportPDF=1&Filename=19MFF-00041_schedule.pdf,,,06/26/2019 12:00:00 AM,20190626,1,01/15/2021 12:00:00 AM,"(37.78732241931987, -122.39222370638346)",6,2,9,28855,6
1800205,Onis M Flores Dewolanski,Push Cart,9125000,MISSION ST: 23RD ST to 24TH ST (2700 - 2799),2786 MISSION ST,3643010,3643,10,24MFF-00012,REQUESTED,MFF - Do not approve without review.,6006957.972,2102177.316,37.75257183593840,-122.41882013507700,http://bsm.sfdpw.org/PermitsTracker/reports/report.aspx?title=schedule&report=rptSchedule&params=permit=24MFF-00012&ExportPDF=1&Filename=24MFF-00012_schedule.pdf,,,,20240724,0,11/15/2025 12:00:00 AM,"(37.75257183593844, -122.41882013507697)",2,4,7,28859,19
1591811,Flavors of Africa,Truck,9090000,MISSION ST: SHAW ALY to ANTHONY ST (543 - 586),555 MISSION ST,3721120,3721,120,22MFF-00017,SUSPEND,Meat and vegi rice bowls: meat and vegi salad bowls: meat and vegi wraps: drinks and juices.,6013055.64573,2115118.24153,37.78844615690130,-122.3986412420390,http://bsm.sfdpw.org/PermitsTracker/reports/report.aspx?title=schedule&report=rptSchedule&params=permit=22MFF-00017&ExportPDF=1&Filename=22MFF-00017_schedule.pdf,,,,20220126,0,11/15/2022 12:00:00 AM,"(37.78844615690132, -122.3986412420388)",12,2,9,28855,6
1723876,Brazuca Grill,Truck,11833000,SHOTWELL ST: 15TH ST to 16TH ST (100 - 199),131 SHOTWELL ST,5501 003,5501,3,23MFF-00007,APPROVED,Cold Truck: Sandwiches: Noodles:  Pre-packaged Snacks: Candy: Desserts Various Beverages,6007971.764,2100466.349,37.74793093611290,-122.41519315390900,http://bsm.sfdpw.org/PermitsTracker/reports/report.aspx?title=schedule&report=rptSchedule&params=permit=23MFF-00007&ExportPDF=1&Filename=23MFF-00007_schedule.pdf,,,03/01/2024 12:00:00 AM,20230911,1,11/15/2024 12:00:00 AM,"(37.74793093611294, -122.41519315390947)",2,7,7,28859,2
1591827,Cochinita,Truck,3285000,BRYANT ST: 04TH ST \ I-80 E OFF RAMP to 05TH ST \ I-80 E ON RAMP (600 - 699),617 BRYANT ST,3777055,3777,55,22MFF-00021,EXPIRED,Mexican Food: Yucatan Food: Street Food,6013083.726,2111696.027,37.779051111573100,-122.39830388133400,http://bsm.sfdpw.org/PermitsTracker/reports/report.aspx?title=schedule&report=rptSchedule&params=permit=22MFF-00021&ExportPDF=1&Filename=22MFF-00021_schedule.pdf,,,03/22/2022 12:00:00 AM,20220126,1,11/15/2022 12:00:00 AM,"(37.779051111573146, -122.39830388133372)",6,2,9,28856,34
1723878,Brazuca Grill,Truck,12482000,TENNESSEE ST: MARIPOSA ST to 18TH ST (600 - 699),640 TENNESSEE ST,3996012,3996,12,23MFF-00007,APPROVED,Cold Truck: Sandwiches: Noodles:  Pre-packaged Snacks: Candy: Desserts Various Beverages,6015341.121,2106001.428,37.76354048392960,-122.39009664366300,http://bsm.sfdpw.org/PermitsTracker/reports/report.aspx?title=schedule&report=rptSchedule&params=permit=23MFF-00007&ExportPDF=1&Filename=23MFF-00007_schedule.pdf,,,03/01/2024 12:00:00 AM,20230911,1,11/15/2024 12:00:00 AM,"(37.76354048392964, -122.39009664366294)",14,3,8,28856,29
1723889,Brazuca Grill,Truck,197101,03RD ST: MARIN ST to ARTHUR AVE \ CARGO WAY (3201 - 3399) -- EAST --,3255 03RD ST,4377001,4377,1,23MFF-00007,APPROVED,Cold Truck: Sandwiches: Noodles:  Pre-packaged Snacks: Candy: Desserts Various Beverages,6016160.221,2100487.333,37.748445338837700,-122.38687903198000,http://bsm.sfdpw.org/PermitsTracker/reports/report.aspx?title=schedule&report=rptSchedule&params=permit=23MFF-00007&ExportPDF=1&Filename=23MFF-00007_schedule.pdf,,,03/01/2024 12:00:00 AM,20230911,1,11/15/2024 12:00:00 AM,"(37.748445338837655, -122.38687903197963)",10,3,8,58,1
1163798,"SOHOMEI, LLC",Truck,7033000,HOWARD ST: 01ST ST to MALDEN ALY (500 - 589),501 HOWARD ST,3736001,3736,1,18MFF-0028,REQUESTED,COLD TRUCK. Deli: bbq chicken skewer: Chinese spring roll: Chinese fried rice/noodle: fried chicken leg/wing: bbq chicken sandwich: chicken cheese burger: burrito: lumpia. Snack: sunflower seeds: muffins: chips: snickers: kit-kat: 10 types of chocolate. Drinks: Coke: 7-Up: Dr. Pepper: Pepsi: Redbull: Vitamin Water: Rockstar: Coconut Juice: Water. Hot drinks: coffee: tea.,,,0,0,http://bsm.sfdpw.org/PermitsTracker/reports/report.aspx?title=schedule&report=rptSchedule&params=permit=18MFF-0028&ExportPDF=1&Filename=18MFF-0028_schedule.pdf,Mo-Fr:6AM-7AM,,,20180521,1,07/15/2019 12:00:00 AM,"(0.0, 0.0)",,,,,
1723884,Brazuca Grill,Truck,187101,03RD ST: MARIPOSA ST to 18TH ST (2001 - 2099) -- EAST --,2085 03RD ST,3994002,3994,2,23MFF-00007,APPROVED,Cold Truck: Sandwiches: Noodles:  Pre-packaged Snacks: Candy: Desserts Various Beverages,6015805.902,2105904.117,37.76329905604460,-122.38848230680500,http://bsm.sfdpw.org/PermitsTracker/reports/report.aspx?title=schedule&report=rptSchedule&params=permit=23MFF-00007&ExportPDF=1&Filename=23MFF-00007_schedule.pdf,,,03/01/2024 12:00:00 AM,20230911,1,11/15/2024 12:00:00 AM,"(37.76329905604463, -122.38848230680541)",14,3,8,28856,29
1729543,Senor Sisig,Truck,10456000,PINE ST: SANSOME ST to CENTURY PL (300 - 340),300 PINE ST,260005,260,5,23MFF-00013,APPROVED,Filipino fusion food: tacos: burritos: nachos: rice plates. Various beverages.,,,0,0,http://bsm.sfdpw.org/PermitsTracker/reports/report.aspx?title=schedule&report=rptSchedule&params=permit=23MFF-00013&ExportPDF=1&Filename=23MFF-00013_schedule.pdf,,,10/03/2023 12:00:00 AM,20230926,0,11/15/2024 12:00:00 AM,"(0.0, 0.0)",,,,,
1163405,Julie's Hot Dogs,Truck,9121000,MISSION ST: 19TH ST to 20TH ST (2300 - 2399),2365 MISSION ST,3595024,3595,24,17MFF-0190,EXPIRED,Hot dogs: Bacon wrapped hot dogs: soda: water: sports drinks: energy drinks: chips,6007087.513,2104603.286,37.75924028515020,-122.4185441711170,http://bsm.sfdpw.org/PermitsTracker/reports/report.aspx?title=schedule&report=rptSchedule&params=permit=17MFF-0190&ExportPDF=1&Filename=17MFF-0190_schedule.pdf,Su/Fr/Sa:12AM-3AM;Th/Fr/Sa:10PM-12AM,,05/17/2018 12:00:00 AM,20170824,0,07/15/2019 12:00:00 AM,"(37.75924028515023, -122.4185441711166)",2,4,7,28859,19
1042438,Ruru Juice LLC,Truck,12316000,SUTTER ST: SANSOME ST to MONTGOMERY ST (50 - 99),80 SUTTER ST,289005,289,5,17MFF-0198,REQUESTED,Smoothies: Juice: Salads: Fruit Bowls: Soup,6012142.609,2115828.791,37.79034624734140,-122.4018501909890,http://bsm.sfdpw.org/PermitsTracker/reports/report.aspx?title=schedule&report=rptSchedule&params=permit=17MFF-0198&ExportPDF=1&Filename=17MFF-0198_schedule.pdf,Mo/We/Fr:9AM-1PM,,,20171129,0,,"(37.79034624734142, -122.4018501909886)",4,1,10,28854,6
1587393,Truly Food & More,Truck,6148201,GENEVA AVE: PRAGUE ST to LINDA VISTA STPS (1500 - 1598) -- SOUTH --,1500 GENEVA AVE,6418065,6418,65,21MFF-00151,REQUESTED,Latin Food: Tacos: Pupusas: Vegetables: Salad: Water: Sodas,6002948.585,2087593.93,37.712302604744400,-122.43164419037300,http://bsm.sfdpw.org/PermitsTracker/reports/report.aspx?title=schedule&report=rptSchedule&params=permit=21MFF-00151&ExportPDF=1&Filename=21MFF-00151_schedule.pdf,,,,20211229,0,11/15/2022 12:00:00 AM,"(37.712302604744416, -122.43164419037294)",9,7,6,28861,5
1585475,"San Francisco Street Foods, Inc.",Push Cart,30049000,DRUMM ST: CALIFORNIA ST intersection,5 THE EMBARCADERO,0234 017,234,17,21MFF-00146,EXPIRED,Hot dogs: condiments: soft pretzels: soft drinks: coffee: cold beverages: pastries: bakery goods: cookies: ice cream: candy: soups: churros: chestnuts: nuts: fresh fruit: fruit juices: desserts: potato chips and popcorn.,6013916.72,2117244.027,37.794331003246800,-122.39581105302300,http://bsm.sfdpw.org/PermitsTracker/reports/report.aspx?title=schedule&report=rptSchedule&params=permit=21MFF-00146&ExportPDF=1&Filename=21MFF-00146_schedule.pdf,,,12/17/2021 12:00:00 AM,20211217,1,11/15/2022 12:00:00 AM,"(37.794331003246846, -122.39581105302317)",4,1,10,28855,6
1744302,"BOWL'D ACAI, LLC.",Truck,2753000,BATTERY ST: PINE ST to CALIFORNIA ST (100 - 199),111 BATTERY ST,261005,261,5,23MFF-00048,APPROVED,Acai Bowls: Smoothies: Juices,6012649.224,2116554.374,37.79236678688310,-122.40014830676700,http://bsm.sfdpw.org/PermitsTracker/reports/report.aspx?title=schedule&report=rptSchedule&params=permit=23MFF-00048&ExportPDF=1&Filename=23MFF-00048_schedule.pdf,,,11/27/2023 12:00:00 AM,20231121,0,11/15/2024 12:00:00 AM,"(37.79236678688307, -122.40014830676716)",4,1,10,28854,6
1723899,Brazuca Grill,Truck,5762000,FRANCISCO ST: MASON ST to TAYLOR ST (500 - 599),500 FRANCISCO ST,42022,42,22,23MFF-00007,APPROVED,Cold Truck: Sandwiches: Noodles:  Pre-packaged Snacks: Candy: Desserts Various Beverages,6008645.39687,2121255.00971,37.805049509058900,-122.41433443694000,http://bsm.sfdpw.org/PermitsTracker/reports/report.aspx?title=schedule&report=rptSchedule&params=permit=23MFF-00007&ExportPDF=1&Filename=23MFF-00007_schedule.pdf,,,03/01/2024 12:00:00 AM,20230911,1,11/15/2024 12:00:00 AM,"(37.805049509058854, -122.41433443693992)",3,1,10,308,23
1750846,TING TING MINI MOBILE DELI,Truck,12827000,UNDERWOOD AVE: INGALLS ST to JENNINGS ST (1300 - 1399),1351 UNDERWOOD AVE,4811005,4811,5,23MFF-00054,APPROVED,Cold Truck: Pre-packaged sandwiches: snacks: fruit: various beverages,6015824.111,2092689.211,37.7270146636245,-122.38749735902200,http://bsm.sfdpw.org/PermitsTracker/reports/report.aspx?title=schedule&report=rptSchedule&params=permit=23MFF-00054&ExportPDF=1&Filename=23MFF-00054_schedule.pdf,,,03/28/2024 12:00:00 AM,20231229,1,11/15/2024 12:00:00 AM,"(37.7270146636245, -122.38749735902202)",10,3,8,58,1
1611740,Kid Abelha - Brazilian Hamburgers,Truck,9504000,NAPOLEON ST: EVANS AVE \ TOLAND ST to JERROLD AVE (25 - 299),125 NAPOLEON ST,5230021,5230,21,21MFF-00070,EXPIRED,Brazilian Hamburgers,6013179.574,2099968.78,37.746856017691900,-122.39714976579400,http://bsm.sfdpw.org/PermitsTracker/reports/report.aspx?title=schedule&report=rptSchedule&params=permit=21MFF-00070&ExportPDF=1&Filename=21MFF-00070_schedule.pdf,,,09/29/2022 12:00:00 AM,20210520,0,11/15/2023 12:00:00 AM,"(37.746856017691925, -122.39714976579396)",10,3,8,58,1
839523,Halal Cart of San Francisco,Push Cart,8741201,MARKET ST: FREMONT ST \ FRONT ST to 01ST ST \ BUSH ST (400 - 498) -- NORTH --,1 FRONT ST,266009,266,9,16MFF-0136,REQUESTED,Gyro; Chicken over rice; Gyro over rice;,6013006.032,2116325.123,37.791757205944400,-122.39889763689200,http://bsm.sfdpw.org/PermitsTracker/reports/report.aspx?title=schedule&report=rptSchedule&params=permit=16MFF-0136&ExportPDF=1&Filename=16MFF-0136_schedule.pdf,,,,20160812,0,,"(37.791757205944414, -122.39889763689186)",4,1,10,28860,6
953198,"Santana ESG, Inc.",Truck,11834000,SHOTWELL ST: 16TH ST to 17TH ST (200 - 299),200 SHOTWELL ST,3571014,3571,14,17MFF-0169,EXPIRED,Tacos: Burritos: Tortas: Quesadillas: Mexican Drinks: Aguas Frescas,6007701.412,2106595.633,37.764745350719500,-122.41656213947000,http://bsm.sfdpw.org/PermitsTracker/reports/report.aspx?title=schedule&report=rptSchedule&params=permit=17MFF-0169&ExportPDF=1&Filename=17MFF-0169_schedule.pdf,Sa-Su:10AM-6PM;Mo-Fr:10AM-10PM,,03/21/2017 12:00:00 AM,20170321,1,07/15/2018 12:00:00 AM,"(37.764745350719494, -122.41656213947006)",8,4,7,28859,19
1723811,Natan's Catering,Truck,197101,03RD ST: MARIN ST to ARTHUR AVE \ CARGO WAY (3201 - 3399) -- EAST --,3201 03RD ST,4377001,4377,1,23MFF-00006,APPROVED,Burgers: melts: hot dogs: burritos:sandwiches: fries: onion rings: drinks,6016160.221,2100487.333,37.748445338837700,-122.38687903198000,http://bsm.sfdpw.org/PermitsTracker/reports/report.aspx?title=schedule&report=rptSchedule&params=permit=23MFF-00006&ExportPDF=1&Filename=23MFF-00006_schedule.pdf,,,09/12/2023 12:00:00 AM,20230911,1,11/15/2024 12:00:00 AM,"(37.748445338837655, -122.38687903197963)",10,3,8,58,1
1660642,The Geez Freeze,Truck,887000,18TH ST: DOLORES ST to CHURCH ST (3700 - 3799),3750 18TH ST,3579006,3579,6,22MFF-00086,EXPIRED,Snow Cones: Soft Serve Ice Cream & Frozen Virgin Daiquiris,6004575.869,2105666.974,37.76201920035650,-122.42730642251300,http://bsm.sfdpw.org/PermitsTracker/reports/report.aspx?title=schedule&report=rptSchedule&params=permit=22MFF-00086&ExportPDF=1&Filename=22MFF-00086_schedule.pdf,,,11/21/2022 12:00:00 AM,20221121,0,11/15/2023 12:00:00 AM,"(37.76201920035647, -122.42730642251331)",8,4,5,28862,3
1332938,Mini Mobile Food Catering,Truck,2956003,BERRY ST: 06TH ST to KING ST (400 - 431),420 BERRY ST,8703006,8703,6,19MFF-00041,EXPIRED,Cold Truck: Corn Dogs: Noodle Soups: Candy: Pre-packaged Snacks: Sandwiches: Chips: Coffee: Tea: Various Beverages,6012806.32546,2109136.8203,37.77200865646880,-122.3990838454730,http://bsm.sfdpw.org/PermitsTracker/reports/report.aspx?title=schedule&report=rptSchedule&params=permit=19MFF-00041&ExportPDF=1&Filename=19MFF-00041_schedule.pdf,,,06/26/2019 12:00:00 AM,20190626,1,01/15/2021 12:00:00 AM,"(37.77200865646878, -122.3990838454733)",14,2,9,310,20
1741751,San Pancho's Tacos,Truck,2801101,BAY SHORE BLVD: CORTLAND AVE to WATERLOO ST (491 - 499) -- EAST --,491 BAY SHORE BLVD,5598008,5598,8,23MFF-00047,APPROVED,Tacos: Burritos: Quesadillas: Tortas: Nachos: Hot Dogs:Soda: Water: Fruit Drinks,,,0,0,http://bsm.sfdpw.org/PermitsTracker/reports/report.aspx?title=schedule&report=rptSchedule&params=permit=23MFF-00047&ExportPDF=1&Filename=23MFF-00047_schedule.pdf,,,12/07/2023 12:00:00 AM,20231116,1,11/15/2024 12:00:00 AM,"(0.0, 0.0)",,,,,
1656382,San Francisco Taco Truck,Truck,13660000,WILLIAMS AVE: APOLLO ST to PHELPS ST \ VESTA ST (300 - 399),345 WILLIAMS AVE,5423A009,5423A,9,22MFF-00030,APPROVED,Tacos: Tortas: Burritos,6012447.306,2093773.934,37.72980548057410,-122.39924710472400,http://bsm.sfdpw.org/PermitsTracker/reports/report.aspx?title=schedule&report=rptSchedule&params=permit=22MFF-00030&ExportPDF=1&Filename=22MFF-00030_schedule.pdf,,,,20220421,0,11/15/2024 12:00:00 AM,"(37.72980548057414, -122.39924710472444)",10,3,8,58,1
1359707,Union Square Business Improvement District,Truck,8626000,MAIDEN LN: GRANT AVE to STOCKTON ST (100 - 199),Assessors Block /Lot,,,,19MFF-00125,REQUESTED,All types of food except for BBQ on site per fire safety. Partnership with Off the Grid and their fleet of MFF's,,,0,0,http://bsm.sfdpw.org/PermitsTracker/reports/report.aspx?title=schedule&report=rptSchedule&params=permit=19MFF-00125&ExportPDF=1&Filename=19MFF-00125_schedule.pdf,,,,20190920,0,07/15/2020 12:00:00 AM,"(0.0, 0.0)",,,,,
931094,Swell Cream & Coffee,Truck,12410000,TARAVAL ST: 34TH AVE to 35TH AVE (2400 - 2499),2450 TARAVAL ST,2363022,2363,22,17MFF-0002,REQUESTED,Ice cream: coffee: pastries,5985532.259,2098975.331,37.74255037355930,-122.49267708221500,http://bsm.sfdpw.org/PermitsTracker/reports/report.aspx?title=schedule&report=rptSchedule&params=permit=17MFF-0002&ExportPDF=1&Filename=17MFF-0002_schedule.pdf,,,,20170130,0,01/30/2018 12:00:00 AM,"(37.74255037355925, -122.49267708221483)",1,8,3,29491,35
1575189,Park's Catering,Truck,5582000,ARELIOUS WALKER DR: PALOU AVE to QUESADA AVE (1300 - 1399),Assessors Block 4755/Lot049,4755049,4755,49,21MFF-00115,EXPIRED,Cold Truck: Hamburger: cheeseburgers: hot dogs: hot sandwiches: cold sandwiches: egg muffins: cup of noodles: corn dogs: canned soup: coffee: hot cocoa: hot tea: gatorade: juice: milk: soda: water: fruits: fruit salad: rice pudding: yogurt: candy bars: chips: cookies: donuts: granola bars: muffins,6018439.93443,2092406.50106,37.726382932182200,-122.37843478266800,http://bsm.sfdpw.org/PermitsTracker/reports/report.aspx?title=schedule&report=rptSchedule&params=permit=21MFF-00115&ExportPDF=1&Filename=21MFF-00115_schedule.pdf,,,12/09/2021 12:00:00 AM,20211119,1,11/15/2022 12:00:00 AM,"(37.726382932182176, -122.37843478266778)",10,3,8,58,1
1750840,TING TING MINI MOBILE DELI,Truck,10972000,REVERE AVE: GRIFFITH ST to CRISP RD (1100 - 1188),1135 REVERE AVE,4786051,4786,51,23MFF-00054,APPROVED,Cold Truck: Pre-packaged sandwiches: snacks: fruit: various beverages,6017542.344,2092456.505,37.72647071624600,-122.38154121915800,http://bsm.sfdpw.org/PermitsTracker/reports/report.aspx?title=schedule&report=rptSchedule&params=permit=23MFF-00054&ExportPDF=1&Filename=23MFF-00054_schedule.pdf,,,03/28/2024 12:00:00 AM,20231229,1,11/15/2024 12:00:00 AM,"(37.72647071624597, -122.38154121915817)",10,3,8,58,1
1332936,Mini Mobile Food Catering,Truck,2138000,ALAMEDA ST: HAMPSHIRE ST to BRYANT ST (2400 - 2599),Assessors Block 3905/Lot011,3905011,3905,11,19MFF-00041,EXPIRED,Cold Truck: Corn Dogs: Noodle Soups: Candy: Pre-packaged Snacks: Sandwiches: Chips: Coffee: Tea: Various Beverages,6009738.83721,2107942.1941,37.76855707131210,-122.40961023629800,http://bsm.sfdpw.org/PermitsTracker/reports/report.aspx?title=schedule&report=rptSchedule&params=permit=19MFF-00041&ExportPDF=1&Filename=19MFF-00041_schedule.pdf,,,06/26/2019 12:00:00 AM,20190626,1,01/15/2021 12:00:00 AM,"(37.76855707131207, -122.40961023629804)",8,4,8,28853,19
1750856,TING TING MINI MOBILE DELI,Truck,2710000,BANCROFT AVE: JENNINGS ST to KEITH ST (1500 - 1599),1555 BANCROFT AVE,4880001,4880,1,23MFF-00054,APPROVED,Cold Truck: Pre-packaged sandwiches: snacks: fruit: various beverages,6014646.012,2091759.86,37.72439752974340,-122.39150511638300,http://bsm.sfdpw.org/PermitsTracker/reports/report.aspx?title=schedule&report=rptSchedule&params=permit=23MFF-00054&ExportPDF=1&Filename=23MFF-00054_schedule.pdf,,,03/28/2024 12:00:00 AM,20231229,1,11/15/2024 12:00:00 AM,"(37.72439752974338, -122.39150511638297)",10,3,8,58,1
1334599,Tacos El Ojo De Agua,Truck,177000,03RD ST: SOUTH PARK to VARNEY PL (548 - 586),551 03RD ST,3775025,3775,25,19MFF-00046,EXPIRED,Tacos: Burritos: Tortas: Quesadillas: Salads: Soup: Fruits: Juices: Soda: Water,6014157.282,2112255.562,37.780647210048400,-122.39462918166200,http://bsm.sfdpw.org/PermitsTracker/reports/report.aspx?title=schedule&report=rptSchedule&params=permit=19MFF-00046&ExportPDF=1&Filename=19MFF-00046_schedule.pdf,,,07/02/2019 12:00:00 AM,20190702,0,01/15/2021 12:00:00 AM,"(37.780647210048365, -122.39462918166163)",6,2,9,28856,6
1658364,Treats by the Bay LLC,Truck,5170000,ELLIS ST: POWELL ST to CYRIL MAGNIN ST (100 - 148),120 ELLIS ST,326005,326,5,22MFF-00055,EXPIRED,Prepackaged Kettlecorn,6010286.046,2114141.69,37.78561008636920,-122.40815476434500,http://bsm.sfdpw.org/PermitsTracker/reports/report.aspx?title=schedule&report=rptSchedule&params=permit=22MFF-00055&ExportPDF=1&Filename=22MFF-00055_schedule.pdf,,,11/08/2022 12:00:00 AM,20221108,0,11/15/2023 12:00:00 AM,"(37.78561008636915, -122.40815476434545)",14,10,10,28852,36
1344203,"Bay Area Dots, LLC",Push Cart,25524000,TAYLOR ST: BAY ST intersection,567 BAY ST,43001,43,1,19MFF-00117,REQUESTED,Hot dogs: condiments: soft pretzels: soft drinks: coffee: cold beverages: pastries: bakery goods: cookies: ice cream: candy: soups: churros: chestnuts: nuts: fresh fruit: fruit juices: desserts: potato chips and popcorn.,,,0,0,http://bsm.sfdpw.org/PermitsTracker/reports/report.aspx?title=schedule&report=rptSchedule&params=permit=19MFF-00117&ExportPDF=1&Filename=19MFF-00117_schedule.pdf,,,,20190802,1,07/15/2020 12:00:00 AM,"(0.0, 0.0)",,,,,
1723870,Brazuca Grill,Truck,10048000,OTIS ST: GOUGH ST \ MCCOPPIN ST to 13TH ST \ DUBOCE AVE \ HWY 101 NORTHBOUND RAMP \ MISSION ST (100 - 199),150 OTIS ST,3513008,3513,8,23MFF-00007,APPROVED,Cold Truck: Sandwiches: Noodles:  Pre-packaged Snacks: Candy: Desserts Various Beverages,6006498.051,2108782.928,37.770683395042600,-122.42087956139900,http://bsm.sfdpw.org/PermitsTracker/reports/report.aspx?title=schedule&report=rptSchedule&params=permit=23MFF-00007&ExportPDF=1&Filename=23MFF-00007_schedule.pdf,,,03/01/2024 12:00:00 AM,20230911,1,11/15/2024 12:00:00 AM,"(37.770683395042624, -122.42087956139908)",8,2,9,28853,19
1723804,Natan's Catering,Truck,10827000,QUINT ST: ARTHUR AVE to CUSTER AVE (1 - 199),50 QUINT ST,5201001,5201,1,23MFF-00006,APPROVED,Burgers: melts: hot dogs: burritos:sandwiches: fries: onion rings: drinks,6015535.265,2099780.721,37.746470506647100,-122.38899080865400,http://bsm.sfdpw.org/PermitsTracker/reports/report.aspx?title=schedule&report=rptSchedule&params=permit=23MFF-00006&ExportPDF=1&Filename=23MFF-00006_schedule.pdf,,,09/12/2023 12:00:00 AM,20230911,1,11/15/2024 12:00:00 AM,"(37.746470506647114, -122.38899080865444)",10,3,8,58,1
1733611,Buenafe,Truck,5335000,EVANS AVE: PHELPS ST to QUINT ST (1600 - 1699),750 PHELPS ST,5280001,5280,1,23MFF-00025,APPROVED,Tacos: Burritos: Quesadillas: Tortas,6014320.244,2097246.796,37.73944545286910,-122.39301498669800,http://bsm.sfdpw.org/PermitsTracker/reports/report.aspx?title=schedule&report=rptSchedule&params=permit=23MFF-00025&ExportPDF=1&Filename=23MFF-00025_schedule.pdf,,,10/18/2023 12:00:00 AM,20231013,0,11/15/2024 12:00:00 AM,"(37.73944545286909, -122.39301498669842)",10,3,8,58,1
934555,"Casey's Pizza, LLC",Truck,11544000,SANSOME ST: PINE ST to CALIFORNIA ST (200 - 299),231 SANSOME ST,260002,260,2,17MFF-0104,EXPIRED,Artisan Pizzas (Margherita: Yukon Potato: Zoe's Pepperoni: Funghi: Brocolli Rabe: Bacon Kale:  Arugula) and Drinks.,6012313.995,2116649.543,37.792609401119000,-122.40131490545100,http://bsm.sfdpw.org/PermitsTracker/reports/report.aspx?title=schedule&report=rptSchedule&params=permit=17MFF-0104&ExportPDF=1&Filename=17MFF-0104_schedule.pdf,Mo/We:10AM-2PM,,08/29/2017 12:00:00 AM,20170213,0,07/15/2018 12:00:00 AM,"(37.792609401119016, -122.40131490545147)",4,1,10,28854,6
1575178,Park's Catering,Truck,10927000,RANKIN ST: DAVIDSON AVE to EVANS AVE (200 - 299),220 RANKIN ST,5215016,5215,16,21MFF-00115,EXPIRED,Cold Truck: Hamburger: cheeseburgers: hot dogs: hot sandwiches: cold sandwiches: egg muffins: cup of noodles: corn dogs: canned soup: coffee: hot cocoa: hot tea: gatorade: juice: milk: soda: water: fruits: fruit salad: rice pudding: yogurt: candy bars: chips: cookies: donuts: granola bars: muffins,6014805.514,2099795.201,37.74646978811480,-122.3915152387720,http://bsm.sfdpw.org/PermitsTracker/reports/report.aspx?title=schedule&report=rptSchedule&params=permit=21MFF-00115&ExportPDF=1&Filename=21MFF-00115_schedule.pdf,,,12/09/2021 12:00:00 AM,20211119,1,11/15/2022 12:00:00 AM,"(37.74646978811481, -122.3915152387716)",10,3,8,58,1
1591779,Street Meet,Truck,6552000,GROVE ST: 08TH ST \ HYDE ST \ MARKET ST to LARKIN ST (1 - 55),30 GROVE ST,354001,354,1,22MFF-00009,SUSPEND,Burritos: Tacos: Quesadillas: Tortas: Carne Asada Fries and various drinks,6008026.826,2111838.426,37.779159119969,-122.4158078824270,http://bsm.sfdpw.org/PermitsTracker/reports/report.aspx?title=schedule&report=rptSchedule&params=permit=22MFF-00009&ExportPDF=1&Filename=22MFF-00009_schedule.pdf,,,,20220126,0,11/15/2022 12:00:00 AM,"(37.779159119969, -122.4158078824267)",7,10,9,28852,36
1750836,TING TING MINI MOBILE DELI,Truck,10215000,PALOU AVE: PALOU AVE to GRIFFITH ST (904 - 999),Assessors Block /Lot,,,,23MFF-00054,APPROVED,Cold Truck: Pre-packaged sandwiches: snacks: fruit: various beverages,,,0,0,http://bsm.sfdpw.org/PermitsTracker/reports/report.aspx?title=schedule&report=rptSchedule&params=permit=23MFF-00054&ExportPDF=1&Filename=23MFF-00054_schedule.pdf,,,03/28/2024 12:00:00 AM,20231229,1,11/15/2024 12:00:00 AM,"(0.0, 0.0)",,,,,
959619,"Kabob Trolley, LLC",Push Cart,267001,04TH ST: TOWNSEND ST to KING ST (700 - 799),298 KING ST,8702606,8702,606,17MFF-0177,REQUESTED,Gyros: Kebobs: refreshments and dessert,6014485.06287,2111154.51751,37.77764220851000,-122.39341814593200,http://bsm.sfdpw.org/PermitsTracker/reports/report.aspx?title=schedule&report=rptSchedule&params=permit=17MFF-0177&ExportPDF=1&Filename=17MFF-0177_schedule.pdf,Mo-Su:10AM-8PM,,,20170407,0,03/15/2018 12:00:00 AM,"(37.77764220851001, -122.39341814593186)",6,2,9,28856,20
1750860,TING TING MINI MOBILE DELI,Truck,5452000,FELL ST: BRODERICK ST to BAKER ST (1300 - 1399),1377 FELL ST,1214017,1214,17,23MFF-00054,APPROVED,Cold Truck: Pre-packaged sandwiches: snacks: fruit: various beverages,6000983.009,2109845.279,37.773287940470400,-122.44003231663500,http://bsm.sfdpw.org/PermitsTracker/reports/report.aspx?title=schedule&report=rptSchedule&params=permit=23MFF-00054&ExportPDF=1&Filename=23MFF-00054_schedule.pdf,,,03/28/2024 12:00:00 AM,20231229,1,11/15/2024 12:00:00 AM,"(37.773287940470354, -122.44003231663504)",15,5,11,29492,10
1163783,"SOHOMEI, LLC",Truck,10477000,PINE ST: POLK ST to VAN NESS AVE (1500 - 1599),1540 PINE ST,646005,646,5,18MFF-0028,REQUESTED,COLD TRUCK. Deli: bbq chicken skewer: Chinese spring roll: Chinese fried rice/noodle: fried chicken leg/wing: bbq chicken sandwich: chicken cheese burger: burrito: lumpia. Snack: sunflower seeds: muffins: chips: snickers: kit-kat: 10 types of chocolate. Drinks: Coke: 7-Up: Dr. Pepper: Pepsi: Redbull: Vitamin Water: Rockstar: Coconut Juice: Water. Hot drinks: coffee: tea.,6006569.835,2115753.493,37.78982691876330,-122.42112628905600,http://bsm.sfdpw.org/PermitsTracker/reports/report.aspx?title=schedule&report=rptSchedule&params=permit=18MFF-0028&ExportPDF=1&Filename=18MFF-0028_schedule.pdf,Mo-Fr:10AM-11AM,,,20180521,1,07/15/2019 12:00:00 AM,"(37.78982691876333, -122.42112628905566)",13,9,10,28858,21
948140,Eli's Hot Dogs,Push Cart,7504000,JERROLD AVE: BARNEVELD AVE to JERROLD AVE (2351 - 2369),101 BAY SHORE BLVD,5559018,5559,18,17MFF-0155,REQUESTED,various styles of hot dogs & sausages: chips: breakfast sandwiches: chili: soda: water:,6011376.107,2100039.012,37.746948295513100,-122.40339096031300,http://bsm.sfdpw.org/PermitsTracker/reports/report.aspx?title=schedule&report=rptSchedule&params=permit=17MFF-0155&ExportPDF=1&Filename=17MFF-0155_schedule.pdf,Mo/Tu/We/Th/Fr:9AM-5PM,,,20170314,1,03/15/2017 12:00:00 AM,"(37.746948295513135, -122.40339096031298)",10,3,8,58,1
1757027,"Off the Grid Services, LLC",Truck,3075000,BRANNAN ST: STANFORD ST to JACK LONDON ALY (324 - 353),340 BRANNAN ST,3775015,3775,15,24MFF-00004,APPROVED,Everything,6014566.387,2112472.164,37.781264686022800,-122.3932290415380,http://bsm.sfdpw.org/PermitsTracker/reports/report.aspx?title=schedule&report=rptSchedule&params=permit=24MFF-00004&ExportPDF=1&Filename=24MFF-00004_schedule.pdf,,,02/08/2024 12:00:00 AM,20240124,0,11/15/2024 12:00:00 AM,"(37.781264686022816, -122.3932290415377)",6,2,9,28856,6
1332937,Mini Mobile Food Catering,Truck,2955000,BERRY ST: 05TH ST to 06TH ST (300 - 399),355 BERRY ST,8707003,8707,3,19MFF-00041,EXPIRED,Cold Truck: Corn Dogs: Noodle Soups: Candy: Pre-packaged Snacks: Sandwiches: Chips: Coffee: Tea: Various Beverages,6013399.28445,2109254.17608,37.772363914767300,-122.39704097036300,http://bsm.sfdpw.org/PermitsTracker/reports/report.aspx?title=schedule&report=rptSchedule&params=permit=19MFF-00041&ExportPDF=1&Filename=19MFF-00041_schedule.pdf,,,06/26/2019 12:00:00 AM,20190626,1,01/15/2021 12:00:00 AM,"(37.772363914767254, -122.39704097036318)",14,2,9,310,20
1575182,Park's Catering,Truck,3376000,BURKE AVE: START: 1500-1599 BLOCK to 03RD ST (1500 - 1599),1570 BURKE AVE,5203066,5203,66,21MFF-00115,EXPIRED,Cold Truck: Hamburger: cheeseburgers: hot dogs: hot sandwiches: cold sandwiches: egg muffins: cup of noodles: corn dogs: canned soup: coffee: hot cocoa: hot tea: gatorade: juice: milk: soda: water: fruits: fruit salad: rice pudding: yogurt: candy bars: chips: cookies: donuts: granola bars: muffins,6016479.94361,2099135.86798,37.74475219161640,-122.38567924872100,http://bsm.sfdpw.org/PermitsTracker/reports/report.aspx?title=schedule&report=rptSchedule&params=permit=21MFF-00115&ExportPDF=1&Filename=21MFF-00115_schedule.pdf,,,12/09/2021 12:00:00 AM,20211119,1,11/15/2022 12:00:00 AM,"(37.74475219161639, -122.38567924872147)",10,3,8,58,1
1732543,Bonito Poke,Truck,7032000,HOWARD ST: FREMONT ST to 01ST ST (400 - 499),400 HOWARD ST,3720008,3720,8,23MFF-00016,REQUESTED,Bonito Poke Bowls & Various Drinks,6013858.05956,2115347.09492,37.78911920766770,-122.39588103933500,http://bsm.sfdpw.org/PermitsTracker/reports/report.aspx?title=schedule&report=rptSchedule&params=permit=23MFF-00016&ExportPDF=1&Filename=23MFF-00016_schedule.pdf,,,,20231010,0,11/15/2024 12:00:00 AM,"(37.78911920766765, -122.39588103933524)",12,2,9,28855,6
1729521,Senor Sisig,Truck,5874000,FRONT ST: BROADWAY to VALLEJO ST (800 - 899),90 BROADWAY,140007,140,7,23MFF-00011,APPROVED,Various menu items & drinks,6012853.387,2119060.762,37.799260113502300,-122.39961794865500,http://bsm.sfdpw.org/PermitsTracker/reports/report.aspx?title=schedule&report=rptSchedule&params=permit=23MFF-00011&ExportPDF=1&Filename=23MFF-00011_schedule.pdf,,,10/03/2023 12:00:00 AM,20230926,0,11/15/2024 12:00:00 AM,"(37.799260113502285, -122.39961794865545)",3,1,10,28860,6
1163784,"SOHOMEI, LLC",Truck,13064000,VALENCIA ST: 18TH ST to 19TH ST (700 - 799),740 VALENCIA ST,3588006,3588,6,18MFF-0028,REQUESTED,COLD TRUCK. Deli: bbq chicken skewer: Chinese spring roll: Chinese fried rice/noodle: fried chicken leg/wing: bbq chicken sandwich: chicken cheese burger: burrito: lumpia. Snack: sunflower seeds: muffins: chips: snickers: kit-kat: 10 types of chocolate. Drinks: Coke: 7-Up: Dr. Pepper: Pepsi: Redbull: Vitamin Water: Rockstar: Coconut Juice: Water. Hot drinks: coffee: tea.,6006152.35,2105247.76,37.760957168278500,-122.42182419935800,http://bsm.sfdpw.org/PermitsTracker/reports/report.aspx?title=schedule&report=rptSchedule&params=permit=18MFF-0028&ExportPDF=1&Filename=18MFF-0028_schedule.pdf,Mo-Fr:11AM-12PM,,,20180521,1,07/15/2019 12:00:00 AM,"(37.760957168278544, -122.42182419935827)",2,4,5,28859,19
1334819,tacos y pupusas los trinos,,9158000,MISSION ST: AVALON AVE to COTTER ST (4368 - 4439),4384 MISSION ST,6798004,6798,4,19MFF-00048,REQUESTED,,6002680.03,2093158.531,37.727566537591700,-122.4329697019890,http://bsm.sfdpw.org/PermitsTracker/reports/report.aspx?title=schedule&report=rptSchedule&params=permit=19MFF-00048&ExportPDF=1&Filename=19MFF-00048_schedule.pdf,,,,20190703,0,,"(37.727566537591706, -122.4329697019889)",9,7,6,28861,25
1587522,"Chairman SF, LLC",Truck,3528000,CALIFORNIA ST: SANSOME ST to LEIDESDORFF ST (400 - 448),400 CALIFORNIA ST,238003,238,3,21MFF-00153,EXPIRED,Baos: bowls & drinks,,,0,0,http://bsm.sfdpw.org/PermitsTracker/reports/report.aspx?title=schedule&report=rptSchedule&params=permit=21MFF-00153&ExportPDF=1&Filename=21MFF-00153_schedule.pdf,,,12/30/2021 12:00:00 AM,20211230,0,11/15/2022 12:00:00 AM,"(0.0, 0.0)",,,,,
1723821,Natan's Catering,Truck,698000,16TH ST: 04TH ST to OWENS ST (600 - 699),600 16TH ST,8718001,8718,1,23MFF-00006,APPROVED,Burgers: melts: hot dogs: burritos:sandwiches: fries: onion rings: drinks,6015149.302,2107435.061,37.76746628714480,-122.39086028943100,http://bsm.sfdpw.org/PermitsTracker/reports/report.aspx?title=schedule&report=rptSchedule&params=permit=23MFF-00006&ExportPDF=1&Filename=23MFF-00006_schedule.pdf,,,09/12/2023 12:00:00 AM,20230911,1,11/15/2024 12:00:00 AM,"(37.76746628714475, -122.39086028943053)",14,3,9,310,20
1575179,Park's Catering,Truck,198201,03RD ST: ARTHUR AVE \ CARGO WAY to BURKE AVE (3400 - 3498) -- WEST --,3450 03RD ST,5211029,5211,29,21MFF-00115,EXPIRED,Cold Truck: Hamburger: cheeseburgers: hot dogs: hot sandwiches: cold sandwiches: egg muffins: cup of noodles: corn dogs: canned soup: coffee: hot cocoa: hot tea: gatorade: juice: milk: soda: water: fruits: fruit salad: rice pudding: yogurt: candy bars: chips: cookies: donuts: granola bars: muffins,6015874.731,2099503.899,37.74572922168840,-122.38779765083700,http://bsm.sfdpw.org/PermitsTracker/reports/report.aspx?title=schedule&report=rptSchedule&params=permit=21MFF-00115&ExportPDF=1&Filename=21MFF-00115_schedule.pdf,,,12/09/2021 12:00:00 AM,20211119,1,11/15/2022 12:00:00 AM,"(37.74572922168844, -122.38779765083679)",10,3,8,58,1
1569152,Datam SF LLC dba Anzu To You,Truck,12463000,TAYLOR ST: BAY ST to NORTH POINT ST (2500 - 2599),2535 TAYLOR ST,29007,29,7,21MFF-00106,EXPIRED,Asian Fusion - Japanese Sandwiches/Sliders/Misubi,6008186.35457,2121568.81783,37.805885350101000,-122.41594524663700,http://bsm.sfdpw.org/PermitsTracker/reports/report.aspx?title=schedule&report=rptSchedule&params=permit=21MFF-00106&ExportPDF=1&Filename=21MFF-00106_schedule.pdf,,,11/05/2021 12:00:00 AM,20211105,0,11/15/2022 12:00:00 AM,"(37.805885350100986, -122.41594524663745)",5,1,10,308,23
1591786,Faith Sandwich,Push Cart,8627000,MAIN ST: MARKET ST to MISSION ST (1 - 99),58 MAIN ST,3711005,3711,5,22MFF-00013,SUSPEND,BBQ PORK SANDWICHGRILL CHICKEN SANDWICHSHIRMP SPRING ROLLSBBQ PORK OVER RICEGRILL CHICKEN OVER RICEBBQ PORK VERMICELLIGRILL CHICKEN VERMICELLIBBQ PORK GARLIC NOODLEGRILL CHICKEN GARLIC NOODLENEW ITEMS:MASALA DOSAPANNER DOSACHICKEN CURRY & RICECHICKEN STEWRICE OR DOSAADD CHEESEADD GHEE,6013902.41,2116435.193,37.79210933860900,-122.39580386550200,http://bsm.sfdpw.org/PermitsTracker/reports/report.aspx?title=schedule&report=rptSchedule&params=permit=22MFF-00013&ExportPDF=1&Filename=22MFF-00013_schedule.pdf,,,,20220126,0,11/15/2022 12:00:00 AM,"(37.79210933860902, -122.39580386550163)",12,2,9,28855,6
1723885,Brazuca Grill,Truck,187201,03RD ST: MARIPOSA ST to 18TH ST (2000 - 2098) -- WEST --,2030 03RD ST,3995105,3995,105,23MFF-00007,APPROVED,Cold Truck: Sandwiches: Noodles:  Pre-packaged Snacks: Candy: Desserts Various Beverages,6015620.25,2106039.246,37.7636598013494,-122.38913385740500,http://bsm.sfdpw.org/PermitsTracker/reports/report.aspx?title=schedule&report=rptSchedule&params=permit=23MFF-00007&ExportPDF=1&Filename=23MFF-00007_schedule.pdf,,,03/01/2024 12:00:00 AM,20230911,1,11/15/2024 12:00:00 AM,"(37.7636598013494, -122.38913385740454)",14,3,8,28856,29
963985,Singh Brothers Ice Cream,Truck,2710000,BANCROFT AVE: JENNINGS ST to KEITH ST (1500 - 1599),1562 BANCROFT AVE,4849006,4849,6,17MFF-0182,REQUESTED,Ice Cream: Pre-Packaged Chips: Candies: Bottled Water & Canned SODA,6014513.081,2092146.105,37.725450702172300,-122.39199164141800,http://bsm.sfdpw.org/PermitsTracker/reports/report.aspx?title=schedule&report=rptSchedule&params=permit=17MFF-0182&ExportPDF=1&Filename=17MFF-0182_schedule.pdf,Mo-Fr:1PM-2PM,,,20170418,1,03/15/2018 12:00:00 AM,"(37.725450702172296, -122.39199164141809)",10,3,8,58,1
1575186,Park's Catering,Truck,5329000,EVANS AVE: HUNTERS POINT BLVD to JENNINGS ST \ MIDDLE POINT RD (1031 - 1099),1000 EVANS AVE,4580002,4580,2,21MFF-00115,EXPIRED,Cold Truck: Hamburger: cheeseburgers: hot dogs: hot sandwiches: cold sandwiches: egg muffins: cup of noodles: corn dogs: canned soup: coffee: hot cocoa: hot tea: gatorade: juice: milk: soda: water: fruits: fruit salad: rice pudding: yogurt: candy bars: chips: cookies: donuts: granola bars: muffins,6019061.11822,2096525.4056,37.737726866595800,-122.37657291457300,http://bsm.sfdpw.org/PermitsTracker/reports/report.aspx?title=schedule&report=rptSchedule&params=permit=21MFF-00115&ExportPDF=1&Filename=21MFF-00115_schedule.pdf,,,12/09/2021 12:00:00 AM,20211119,1,11/15/2022 12:00:00 AM,"(37.737726866595764, -122.37657291457295)",10,3,8,58,1
1591832,Shah's Halal Food,Push Cart,8742202,MARKET ST: BATTERY ST to SUTTER ST (540 - 558) -- NORTH --,532 MARKET ST,290012,290,12,22MFF-00022,SUSPEND,Chicken Gyro: Lamb Gyro: Chiken Gyro Plate: Lamb Gyro Plate: Combination Gyro Plate.,6012582.228,2115893.453,37.79054831818320,-122.40033367367900,http://bsm.sfdpw.org/PermitsTracker/reports/report.aspx?title=schedule&report=rptSchedule&params=permit=22MFF-00022&ExportPDF=1&Filename=22MFF-00022_schedule.pdf,,,,20220126,0,11/15/2022 12:00:00 AM,"(37.79054831818324, -122.40033367367877)",4,1,10,28854,6
848080,Taqueria Lolita,Truck,10927000,RANKIN ST: DAVIDSON AVE to EVANS AVE (200 - 299),1700 EVANS AVE,5227001,5227,1,16MFF-0128,SUSPEND,Tacos: burritos: quesadillas: combination plates: tortas: tostadas,6014950.929,2099216.653,37.744889286143,-122.39097197693500,http://bsm.sfdpw.org/PermitsTracker/reports/report.aspx?title=schedule&report=rptSchedule&params=permit=16MFF-0128&ExportPDF=1&Filename=16MFF-0128_schedule.pdf,Th/Fr/Sa:7AM-3PM,,08/01/2017 12:00:00 AM,20160622,0,03/15/2018 12:00:00 AM,"(37.744889286143, -122.39097197693538)",10,3,8,58,1
1535610,Wu Wei LLC dba MoBowl,Truck,7033000,HOWARD ST: 01ST ST to MALDEN ALY (500 - 589),500 HOWARD ST,3721011,3721,11,21MFF-00076,EXPIRED,Various types of meat: veggie: and seafood bowls.,,,0,0,http://bsm.sfdpw.org/PermitsTracker/reports/report.aspx?title=schedule&report=rptSchedule&params=permit=21MFF-00076&ExportPDF=1&Filename=21MFF-00076_schedule.pdf,,,07/02/2021 12:00:00 AM,20210701,1,11/15/2021 12:00:00 AM,"(0.0, 0.0)",,,,,
1732541,Bonito Poke,Truck,107000,01ST ST: HOWARD ST to TEHAMA ST (200 - 231),505 HOWARD ST,3736183,3736,183,23MFF-00016,REQUESTED,Bonito Poke Bowls & Various Drinks,6013786.26714,2114936.80369,37.78798864899530,-122.39610066847200,http://bsm.sfdpw.org/PermitsTracker/reports/report.aspx?title=schedule&report=rptSchedule&params=permit=23MFF-00016&ExportPDF=1&Filename=23MFF-00016_schedule.pdf,,,,20231010,0,11/15/2024 12:00:00 AM,"(37.78798864899528, -122.39610066847152)",6,2,9,28855,6
1591784,FRUITYMANIA,Push Cart,8747102,MARKET ST: 04TH ST \ ELLIS ST \ STOCKTON ST to POWELL ST (801 - 863) -- SOUTH --,801 MARKET ST,3705Z001,3705Z,1,22MFF-00012,SUSPEND,Fruit Salads: Fruit Drinks: Can Soda: Water,6010997.43389,2113901.46037,37.784990279306500,-122.40567662907200,http://bsm.sfdpw.org/PermitsTracker/reports/report.aspx?title=schedule&report=rptSchedule&params=permit=22MFF-00012&ExportPDF=1&Filename=22MFF-00012_schedule.pdf,,,,20220126,0,11/15/2022 12:00:00 AM,"(37.784990279306456, -122.40567662907203)",12,2,9,28853,34
1738647,Eva's Catering,Truck,7236000,INGALLS ST: CARROLL AVE to DONNER AVE (2600 - 2699),2600 INGALLS ST,4882001,4882,1,23MFF-00043,APPROVED,Corndogs: fried burrito: rice placet: soda: water: sandwiches: soup: noodle plates,6015050.344,2091107.684,37.722629217598300,-122.39006184632700,http://bsm.sfdpw.org/PermitsTracker/reports/report.aspx?title=schedule&report=rptSchedule&params=permit=23MFF-00043&ExportPDF=1&Filename=23MFF-00043_schedule.pdf,,,11/13/2023 12:00:00 AM,20231108,0,11/15/2024 12:00:00 AM,"(37.722629217598346, -122.39006184632663)",10,3,8,58,1
1723812,Natan's Catering,Truck,2157202,ALEMANY BLVD: FOLSOM ST to ELLSWORTH ST \ I-280 S OFF RAMP \ I-280 S ON RAMP (400 - 498) -- NORTH --,400 ALEMANY BLVD,5843024,5843,24,23MFF-00006,APPROVED,Burgers: melts: hot dogs: burritos:sandwiches: fries: onion rings: drinks,6008042.13742,2095078.99168,37.73314239514260,-122.41456863241900,http://bsm.sfdpw.org/PermitsTracker/reports/report.aspx?title=schedule&report=rptSchedule&params=permit=23MFF-00006&ExportPDF=1&Filename=23MFF-00006_schedule.pdf,,,09/12/2023 12:00:00 AM,20230911,1,11/15/2024 12:00:00 AM,"(37.73314239514255, -122.41456863241858)",2,7,7,28859,2
1730565,DO UC US Mobile Catering,Truck,19986000,04TH ST: MISSION BAY BLVD to NELSON RISING LN (1400 - 1499),1420 04TH ST,8716001,8716,1,23MFF-00015,APPROVED,Cold truck: sandwiches: salads: beverages: chips: candy: cookies: coffee: tea: drinks,6015098.414,2108321.616,37.76989774889610,-122.3910982796350,http://bsm.sfdpw.org/PermitsTracker/reports/report.aspx?title=schedule&report=rptSchedule&params=permit=23MFF-00015&ExportPDF=1&Filename=23MFF-00015_schedule.pdf,,,10/12/2023 12:00:00 AM,20231004,1,11/15/2024 12:00:00 AM,"(37.76989774889607, -122.3910982796345)",14,3,9,310,20
1723907,Brazuca Grill,Truck,9582003,NEWHALL ST: BITTING AVE to EGBERT AVE (2660 - 2899),2660 NEWHALL ST,5434B004,5434B,4,23MFF-00007,APPROVED,Cold Truck: Sandwiches: Noodles:  Pre-packaged Snacks: Candy: Desserts Various Beverages,6012315.623,2092832.142,37.727212173900400,-122.39963625164400,http://bsm.sfdpw.org/PermitsTracker/reports/report.aspx?title=schedule&report=rptSchedule&params=permit=23MFF-00007&ExportPDF=1&Filename=23MFF-00007_schedule.pdf,,,03/01/2024 12:00:00 AM,20230911,1,11/15/2024 12:00:00 AM,"(37.727212173900384, -122.39963625164356)",10,3,8,58,1
1575185,Park's Catering,Truck,4615000,DAVIDSON AVE: RANKIN ST to SELBY ST (1600 - 1699),1650 DAVIDSON AVE,5215022,5215,22,21MFF-00115,EXPIRED,Cold Truck: Hamburger: cheeseburgers: hot dogs: hot sandwiches: cold sandwiches: egg muffins: cup of noodles: corn dogs: canned soup: coffee: hot cocoa: hot tea: gatorade: juice: milk: soda: water: fruits: fruit salad: rice pudding: yogurt: candy bars: chips: cookies: donuts: granola bars: muffins,6014623.707,2099886.835,37.74671130304030,-122.39215031945300,http://bsm.sfdpw.org/PermitsTracker/reports/report.aspx?title=schedule&report=rptSchedule&params=permit=21MFF-00115&ExportPDF=1&Filename=21MFF-00115_schedule.pdf,,,12/09/2021 12:00:00 AM,20211119,1,11/15/2022 12:00:00 AM,"(37.74671130304029, -122.39215031945261)",10,3,8,58,1
1732705,Roadside Rotisserie Corporation / Country Grill,Truck,3527000,CALIFORNIA ST: BATTERY ST to SANSOME ST (300 - 399),300 CALIFORNIA ST,238002,238,2,23MFF-00023,APPROVED,Rotisserie Chicken; Ribs; Pork Loin; Roasted Potatoes; Chicken Wrap; Kale Salad; Drinks,6012600.766,2116948.597,37.79344652781610,-122.40034367559200,http://bsm.sfdpw.org/PermitsTracker/reports/report.aspx?title=schedule&report=rptSchedule&params=permit=23MFF-00023&ExportPDF=1&Filename=23MFF-00023_schedule.pdf,,,12/15/2023 12:00:00 AM,20231011,0,11/15/2024 12:00:00 AM,"(37.79344652781607, -122.40034367559197)",4,1,10,28854,6
1738245,Zuri Food Facilities,Truck,3529000,CALIFORNIA ST: LEIDESDORFF ST to MONTGOMERY ST (449 - 499),475 CALIFORNIA ST,260010,260,10,23MFF-00036,APPROVED,Peruvian Food Served Hot,6012002.812,2116560.078,37.792346385148,-122.40238532279400,http://bsm.sfdpw.org/PermitsTracker/reports/report.aspx?title=schedule&report=rptSchedule&params=permit=23MFF-00036&ExportPDF=1&Filename=23MFF-00036_schedule.pdf,,,11/15/2023 12:00:00 AM,20231103,0,11/15/2024 12:00:00 AM,"(37.792346385148, -122.40238532279395)",4,1,10,28854,6
1741653,Truly Food & More,Truck,107000,01ST ST: HOWARD ST to TEHAMA ST (200 - 231),505 HOWARD ST,3736183,3736,183,23MFF-00046,APPROVED,Latin Food: Tacos: Pupusas: Vegetables: Salad: Waters: Sodas,6013786.26714,2114936.80369,37.78798864899530,-122.39610066847200,http://bsm.sfdpw.org/PermitsTracker/reports/report.aspx?title=schedule&report=rptSchedule&params=permit=23MFF-00046&ExportPDF=1&Filename=23MFF-00046_schedule.pdf,,,11/16/2023 12:00:00 AM,20231116,1,11/15/2024 12:00:00 AM,"(37.78798864899528, -122.39610066847152)",6,2,9,28855,6
963996,Singh Brothers Ice Cream,Truck,7895000,KIRKWOOD AVE: NEWHALL ST to PHELPS ST (1600 - 1699),1698 KIRKWOOD AVE,5279027,5279,27,17MFF-0182,REQUESTED,Ice Cream: Pre-Packaged Chips: Candies: Bottled Water & Canned SODA,6014750.983,2097205.93,37.73935716086750,-122.39152281175900,http://bsm.sfdpw.org/PermitsTracker/reports/report.aspx?title=schedule&report=rptSchedule&params=permit=17MFF-0182&ExportPDF=1&Filename=17MFF-0182_schedule.pdf,Mo-Fr:4PM-5PM,,,20170418,1,03/15/2018 12:00:00 AM,"(37.73935716086751, -122.39152281175875)",10,3,8,58,1
1738309,San Francisco's Hometown Creamery,Truck,10624001,POST ST: MONTGOMERY ST to LICK PL (1 - 40),1 MONTGOMERY ST,292002,292,2,23MFF-00039,APPROVED,Ice Cream: Waffle Cones,6011970.278,2115432.874,37.78924953407510,-122.40241859729400,http://bsm.sfdpw.org/PermitsTracker/reports/report.aspx?title=schedule&report=rptSchedule&params=permit=23MFF-00039&ExportPDF=1&Filename=23MFF-00039_schedule.pdf,,,11/06/2023 12:00:00 AM,20231106,0,11/15/2024 12:00:00 AM,"(37.78924953407508, -122.40241859729358)",4,1,10,28854,6
1723893,Brazuca Grill,Truck,3736000,CARROLL AVE: INGALLS ST to JENNINGS ST (1400 - 1499),1420 CARROLL AVE,4879023,4879,23,23MFF-00007,APPROVED,Cold Truck: Sandwiches: Noodles:  Pre-packaged Snacks: Candy: Desserts Various Beverages,6015058.106,2091452.65,37.7235768564887,-122.39005910139900,http://bsm.sfdpw.org/PermitsTracker/reports/report.aspx?title=schedule&report=rptSchedule&params=permit=23MFF-00007&ExportPDF=1&Filename=23MFF-00007_schedule.pdf,,,03/01/2024 12:00:00 AM,20230911,1,11/15/2024 12:00:00 AM,"(37.7235768564887, -122.39005910139933)",10,3,8,58,1
1010174,Julie's Hot Dogs,Truck,9121000,MISSION ST: 19TH ST to 20TH ST (2300 - 2399),2386 MISSION ST,3596119,3596,119,15MFF-0007,REQUESTED,Hot dogs: bacon-wrapped hot dogs: chicken burgers: energy drinks: water and various other drinks.,6006843.48,2104477.073,37.75887999201480,-122.41937920298400,http://bsm.sfdpw.org/PermitsTracker/reports/report.aspx?title=schedule&report=rptSchedule&params=permit=15MFF-0007&ExportPDF=1&Filename=15MFF-0007_schedule.pdf,Tu/We/Th:12AM-3AM;Mo-We:12PM-12AM,,,20150223,0,,"(37.75887999201479, -122.41937920298372)",2,4,7,28859,19
1738246,Zuri Food Facilities,Truck,12045000,SPEAR ST: MISSION ST to HOWARD ST (100 - 199),100 SPEAR ST,3717001,3717,1,23MFF-00037,APPROVED,Peruvian Food Served Hot,6014423.85,2116439.642,37.792150548481700,-122.39399997405900,http://bsm.sfdpw.org/PermitsTracker/reports/report.aspx?title=schedule&report=rptSchedule&params=permit=23MFF-00037&ExportPDF=1&Filename=23MFF-00037_schedule.pdf,,,11/15/2023 12:00:00 AM,20231103,0,11/15/2024 12:00:00 AM,"(37.792150548481686, -122.39399997405945)",12,2,9,28855,6
1730564,DO UC US Mobile Catering,Truck,185104,03RD ST: MISSION BAY BLVD to WARRIORS WAY (1401 - 1599) -- EAST --,1501 03RD ST,8720013,8720,13,23MFF-00015,APPROVED,Cold truck: sandwiches: salads: beverages: chips: candy: cookies: coffee: tea: drinks,6015663.18414,2108672.39344,37.77089223103180,-122.3891692314830,http://bsm.sfdpw.org/PermitsTracker/reports/report.aspx?title=schedule&report=rptSchedule&params=permit=23MFF-00015&ExportPDF=1&Filename=23MFF-00015_schedule.pdf,,,10/12/2023 12:00:00 AM,20231004,1,11/15/2024 12:00:00 AM,"(37.77089223103183, -122.3891692314827)",14,3,9,310,20
1336733,Quan Catering,Truck,198101,03RD ST: ARTHUR AVE \ CARGO WAY to BURKE AVE (3401 - 3499) -- EAST --,3433 03RD ST,5203023,5203,23,19MFF-00055,EXPIRED,Cold Truck: Soft drinks: cup cakes: potato chips: cookies: gum: sandwiches (hot & cold): peanuts: muffins: coff (hot & cold): water: juice: yoplait: milk: orange juice: sunflower seeds: can foods: burritos: buscuits: chimichangas: rice krispies,,,0,0,http://bsm.sfdpw.org/PermitsTracker/reports/report.aspx?title=schedule&report=rptSchedule&params=permit=19MFF-00055&ExportPDF=1&Filename=19MFF-00055_schedule.pdf,,,07/10/2019 12:00:00 AM,20190710,1,01/15/2021 12:00:00 AM,"(0.0, 0.0)",,,,,
1757023,"Off the Grid Services, LLC",Truck,2953000,BERRY ST: 03RD ST to 04TH ST (100 - 199),185 BERRY ST,3803005,3803,5,24MFF-00003,APPROVED,everything except for hot dogs,6014943.869,2110666.298,37.77632714778990,-122.39179682107700,http://bsm.sfdpw.org/PermitsTracker/reports/report.aspx?title=schedule&report=rptSchedule&params=permit=24MFF-00003&ExportPDF=1&Filename=24MFF-00003_schedule.pdf,,,02/08/2024 12:00:00 AM,20240124,0,11/15/2024 12:00:00 AM,"(37.77632714778992, -122.39179682107691)",6,2,9,28856,20
1744305,"BOWL'D ACAI, LLC.",Truck,9301000,MONTGOMERY ST: CALIFORNIA ST to SACRAMENTO ST (400 - 499),451 MONTGOMERY ST,240001,240,1,23MFF-00049,APPROVED,Acai Bowls: Smoothies: Juices,6011767.937,2117013.017,37.79357693326180,-122.40322987670100,http://bsm.sfdpw.org/PermitsTracker/reports/report.aspx?title=schedule&report=rptSchedule&params=permit=23MFF-00049&ExportPDF=1&Filename=23MFF-00049_schedule.pdf,,,11/27/2023 12:00:00 AM,20231121,0,11/15/2024 12:00:00 AM,"(37.79357693326183, -122.40322987670133)",4,1,10,28854,6
627558,"Off the Grid Services, LLC",Truck,4609000,DAVIS ST: DAVIS CT \ JACKSON ST to BROADWAY (500 - 699),Assessors Block /Lot,,,,15MFF-0039,REQUESTED,varies truck to truck,,,0,0,http://bsm.sfdpw.org/PermitsTracker/reports/report.aspx?title=schedule&report=rptSchedule&params=permit=15MFF-0039&ExportPDF=1&Filename=15MFF-0039_schedule.pdf,Tu/Th/Fr:10AM-3PM,,,20150306,0,,"(0.0, 0.0)",,,,,
1723820,Natan's Catering,Truck,6759001,HARRISON ST: 26TH ST to KAMILLE CT (3000 - 3048),3040 HARRISON ST,6573001,6573,1,23MFF-00006,APPROVED,Burgers: melts: hot dogs: burritos:sandwiches: fries: onion rings: drinks,6008722.691,2100785.001,37.748848056566300,-122.41261899465500,http://bsm.sfdpw.org/PermitsTracker/reports/report.aspx?title=schedule&report=rptSchedule&params=permit=23MFF-00006&ExportPDF=1&Filename=23MFF-00006_schedule.pdf,,,09/12/2023 12:00:00 AM,20230911,1,11/15/2024 12:00:00 AM,"(37.748848056566345, -122.41261899465519)",2,4,7,28859,19
1575193,Park's Catering,Truck,8700000,MARIN ST: KANSAS ST to HWY 101 N ON RAMP (2500 - 2599),2525 MARIN ST,4343001D,4343,001D,21MFF-00115,EXPIRED,Cold Truck: Hamburger: cheeseburgers: hot dogs: hot sandwiches: cold sandwiches: egg muffins: cup of noodles: corn dogs: canned soup: coffee: hot cocoa: hot tea: gatorade: juice: milk: soda: water: fruits: fruit salad: rice pudding: yogurt: candy bars: chips: cookies: donuts: granola bars: muffins,6011789.79,2100273.801,37.74761607223310,-122.40197697572400,http://bsm.sfdpw.org/PermitsTracker/reports/report.aspx?title=schedule&report=rptSchedule&params=permit=21MFF-00115&ExportPDF=1&Filename=21MFF-00115_schedule.pdf,,,12/09/2021 12:00:00 AM,20211119,1,11/15/2022 12:00:00 AM,"(37.74761607223309, -122.40197697572432)",10,3,8,58,1
1750910,"The New York Frankfurter Co. of CA, Inc. DBA: Annie's Hot Dogs",Push Cart,8747202,MARKET ST: 04TH ST \ ELLIS ST \ STOCKTON ST to POWELL ST (800 - 890) -- NORTH --,870 MARKET ST,329005,329,5,23MFF-00056,APPROVED,Soft pretzels: hot dogs: sausages: chips: popcorn: soda: espresso: cappucino: pastry: ica cream: ices: italian sausage: shish-ka-bob: churros: juice: water: various drinks,6010493.859,2113955.658,37.78511092044780,-122.40742266827700,http://bsm.sfdpw.org/PermitsTracker/reports/report.aspx?title=schedule&report=rptSchedule&params=permit=23MFF-00056&ExportPDF=1&Filename=23MFF-00056_schedule.pdf,,,01/26/2024 12:00:00 AM,20231229,1,11/15/2024 12:00:00 AM,"(37.78511092044776, -122.40742266827704)",14,10,10,28852,6
1750859,TING TING MINI MOBILE DELI,Truck,4908000,DONNER AVE: INGALLS ST to JENNINGS ST (1400 - 1499),1450 DONNER AVE,4882025,4882,25,23MFF-00054,APPROVED,Cold Truck: Pre-packaged sandwiches: snacks: fruit: various beverages,6014749.836,2091269.372,37.72305650933890,-122.39111194064200,http://bsm.sfdpw.org/PermitsTracker/reports/report.aspx?title=schedule&report=rptSchedule&params=permit=23MFF-00054&ExportPDF=1&Filename=23MFF-00054_schedule.pdf,,,03/28/2024 12:00:00 AM,20231229,1,11/15/2024 12:00:00 AM,"(37.72305650933894, -122.39111194064196)",10,3,8,58,1
812017,SF Street Food,Truck,12320000,SUTTER ST: CLAUDE LN to GRANT AVE (216 - 299),290 SUTTER ST,287014,287,14,16MFF-0126,REQUESTED,Chicken Tikka Masala: Vegetarian Rice Plate: Burritos: Tacos: Mango Lassi,6011162.135,2115691.265,37.78991386713440,-122.40523289252400,http://bsm.sfdpw.org/PermitsTracker/reports/report.aspx?title=schedule&report=rptSchedule&params=permit=16MFF-0126&ExportPDF=1&Filename=16MFF-0126_schedule.pdf,,,,20160531,0,,"(37.78991386713444, -122.40523289252366)",5,1,10,28857,6
1795943,Antojitos la Patita,Truck,2842000,BEACH ST: TAYLOR ST to JONES ST (400 - 499),450 BEACH ST,0012003A,12,003A,24MFF-00007,REQUESTED,Guatemalan and Mexican FoodMFF - Do not approve without review,6007991.1807,2122137.01317,37.80743449558140,-122.41666095486100,http://bsm.sfdpw.org/PermitsTracker/reports/report.aspx?title=schedule&report=rptSchedule&params=permit=24MFF-00007&ExportPDF=1&Filename=24MFF-00007_schedule.pdf,,,,20240617,0,,"(37.80743449558139, -122.41666095486075)",5,1,10,308,23